SILU-1 (SILKROAD 1)     
1 42903U 17021F   18261.07041984  .00030915  00000-0  19190-3 0  9991
2 42903  42.7764 123.8159 0014718 244.9470 240.4581 15.76236462 64567
MIRATA                  
1 43015U 17073C   18260.75674028  .00001723  00000-0  14129-3 0  9990
2 43015  97.7049 187.8985 0256984 330.4674  28.2224 14.78353314 44814
MAKERSAT 0              
1 43016U 17073D   18260.33631910  .00001151  00000-0  95933-4 0  9996
2 43016  97.7079 187.6445 0258466 331.9023  26.8436 14.78296222 44743
ASTERIA                 
1 43020U 98067NH  18261.20916128  .00008893  00000-0  10858-3 0  9999
2 43020  51.6408 266.3885 0002412 138.6069 221.5108 15.61299964 47018
DELLINGR (RBLE)         
1 43021U 98067NJ  18261.19504040  .00005917  00000-0  81874-4 0  9995
2 43021  51.6390 269.2514 0002461 131.5346 228.5858 15.58688466 46972
OSIRIS-3U               
1 43027U 98067NL  18261.20460121  .00039393  00000-0  32542-3 0  9996
2 43027  51.6358 258.0077 0003440 100.1593 259.9793 15.69893093 47003
AEROCUBE 7B             
1 43042U 17071F   18260.64525623  .00002526  00000-0  73614-4 0  9999
2 43042  51.6393 310.9150 0004474 240.0423 120.0117 15.39391122 43842
AEROCUBE 7C             
1 43043U 17071G   18260.58032626  .00002399  00000-0  70416-4 0  9994
2 43043  51.6396 311.2380 0004578 241.4552 118.5972 15.39393309 43804
CHEFSAT                 
1 43044U 17071H   18260.52582672  .00004541  00000-0  11934-3 0  9990
2 43044  51.6399 310.1620 0004504 241.5741 118.4790 15.40647033 43819
ASGARDIA 1              
1 43049U 17071N   18260.61844953  .00002967  00000-0  84353-4 0  9994
2 43049  51.6397 310.7522 0002027 264.3852  95.6901 15.39512340 43802
ISARA                   
1 43050U 17071P   18260.53891037  .00004589  00000-0  12141-3 0  9999
2 43050  51.6392 310.2384 0001942 262.6958  97.3806 15.40410159 43814
FAUNA                   
1 43052U 17071R   18260.59812123  .00002781  00000-0  79281-4 0  9997
2 43052  51.6397 310.6276 0001953 258.2983 101.7782 15.39675395 43801
CORVUS BC3              
1 43118U 18004H   18260.29711178  .00000823  00000-0  38712-4 0  9991
2 43118  97.5245 323.0313 0011917 127.8849 232.3467 15.22391587 37723
MICROMAS-2A             
1 43131U 18004W   18260.61321631  .00001827  00000-0  80413-4 0  9993
2 43131  97.5256 323.5543 0011056 129.2703 230.9516 15.23107440 37788
GOMX4-B                 
1 43196U 18015E   18260.87325440  .00000656  00000-0  30114-4 0  9998
2 43196  97.3575  27.9671 0018497 187.8189 172.2760 15.23744623 34643
GOMX4-A                 
1 43197U 18015F   18261.15481803  .00000764  00000-0  34563-4 0  9999
2 43197  97.3597  28.2484 0019066 185.9026 298.8403 15.23754934 34696
1KUNS-PF                
1 43466U 98067NP  18261.20252246  .00010259  00000-0  14310-3 0  9993
2 43466  51.6387 273.0415 0001349  66.6552 293.4582 15.57536344 20181
UBAKUSAT                
1 43467U 98067NQ  18261.02789894  .00009033  00000-0  12946-3 0  9999
2 43467  51.6388 274.1288 0003130 102.7586 257.3756 15.56975606 20169
BATSU-CS1 (IRAZU)       
1 43468U 98067NR  18260.47706770  .00013043  00000-0  17705-3 0  9994
2 43468  51.6390 276.4470 0001408  54.2167 305.8956 15.57992536120066
CUBERRT                 
1 43546U 98067NU  18260.56523783  .00014198  00000-0  20983-3 0  9996
2 43546  51.6388 277.7781 0005473 174.3240 185.7815 15.55588820 10209
TEMPEST-D               
1 43547U 98067NV  18261.21509042  .00002593  00000-0  44760-4 0  9998
2 43547  51.6393 274.6184 0005799 178.6482 181.4525 15.55174581  9984
HALOSAT                 
1 43549U 98067NX  18261.21369976  .00006696  00000-0  10336-3 0  9999
2 43549  51.6389 274.6094 0005465 186.9777 173.1139 15.55428692  9995
ENDUROSAT ONE           
1 43551U 98067NZ  18260.49382198  .00009648  00000-0  14351-3 0  9993
2 43551  51.6387 278.0517 0005694 193.3831 166.7010 15.55856177 10295
EQUISAT                 
1 43552U 98067PA  18261.20231723  .00007443  00000-0  11281-3 0  9991
2 43552  51.6389 274.5345 0005992 196.6902 163.3893 15.55739354 10361
AEROCUBE 12A            
1 43556U 18046C   18260.53139011  .00000610  00000-0  35023-4 0  9996
2 43556  51.6427 290.8664 0008583 167.0067 193.1135 15.27810387  9639
AEROCUBE 12B            
1 43557U 18046D   18260.53155688  .00000311  00000-0  24172-4 0  9996
2 43557  51.6427 290.8674 0008585 166.9500 193.1703 15.27790780  9582
UITMSAT-1               
1 43589U 98067PD  18261.03901290  .00009811  00000-0  14894-3 0  9999
2 43589  51.6387 275.6911 0005236 205.8081 154.2649 15.55275340  6073
MAYA-1                  
1 43590U 98067PE  18261.03830959  .00009964  00000-0  15098-3 0  9990
2 43590  51.6388 275.6866 0005321 206.9792 153.0924 15.55304632  6004
BHUTAN-1                
1 43591U 98067PF  18261.23014436  .00008283  00000-0  12655-3 0  9996
2 43591  51.6387 274.7179 0005390 209.3493 150.7196 15.55343627  6037
SIRIUSSAT 1             
1 43595U 98067PG  18261.17740703  .00009665  00000-0  14876-3 0  9998
2 43595  51.6388 275.1114 0003557 148.5502 211.5702 15.54916397  5200
SIRIUSSAT 2             
1 43596U 98067PH  18260.53756013  .00008496  00000-0  13238-3 0  9991
2 43596  51.6397 278.3416 0004166 151.8221 208.2996 15.54763327  5103
